EPOCH,NORAD_CAT_ID,MEAN_MOTION,ECCENTRICITY,INCLINATION,RA_OF_ASC_NODE,ARG_OF_PERICENTER,MEAN_ANOMALY,MEAN_MOTION_DOT,BSTAR,TLE_LINE1,TLE_LINE2
2022-05-25 14:00:01,50803,15.08819064,0.0002071,53.2161,262.6037,37.1425,43.1728,-0.00006039,-0.00036186,1 50803U 22001A   22145.58334491 -.00006039  00000-0 -36186-3 0  9999,2 50803  53.2161 262.6037 0002071  37.1425  43.1728 15.08819064  1305
2022-05-25 20:00:19,50803,15.08827266,0.0002164,53.2184,261.4779,37.1405,322.9737,-0.00001717,-0.000089803,1 50803U 22001A   22145.83355582 -.00001717  00000-0 -89803-4 0  9994,2 50803  53.2184 261.4779 0002164  37.1405 322.9737 15.08827266 21494
2022-05-26 06:00:00,50803,15.0882251,0.0001932,53.2158,259.6092,40.1246,63.3494,0.00051483,0.0032309,1 50803U 22001A   22146.25001157  .00051483  00000-0  32309-2 0  9997,2 50803  53.2158 259.6092 0001932  40.1246  63.3494 15.08822510 22822
2022-05-26 13:29:32,50803,15.0884097,0.0002211,53.2184,258.211,44.8388,315.2783,0.00002675,0.00018613,1 50803U 22001A   22146.56217955  .00002675  00000-0  18613-3 0  9998,2 50803  53.2184 258.2110 0002211  44.8388 315.2783 15.08840970 21601
2022-05-26 19:51:04,50803,15.0884548,0.0002558,53.2172,257.0232,30.0865,330.0274,0.00002126,0.00015161,1 50803U 22001A   22146.82713871  .00002126  00000-0  15161-3 0  9991,2 50803  53.2172 257.0232 0002558  30.0865 330.0274 15.08845480 21646
2022-05-26 20:00:01,50803,15.08837485,0.0002005,53.2157,256.9923,28.5168,5.2833,0.00023337,0.0014796,1 50803U 22001A   22146.83334491  .00023337  00000-0  14796-2 0  9998,2 50803  53.2157 256.9923 0002005  28.5168   5.2833 15.08837485 22918
2022-05-27 14:00:01,50803,15.08838065,0.0002112,53.2162,253.6253,34.7158,115.1819,-0.00000374,-0.0000053753,1 50803U 22001A   22147.58334491 -.00000374  00000-0 -53753-5 0  9998,2 50803  53.2162 253.6253 0002112  34.7158 115.1819 15.08838065 23024
2022-05-27 14:00:01,50803,15.08838065,0.0002112,53.2162,253.6253,34.7158,115.1819,-0.00000374,-0.0000053753,1 50803U 22001A   22147.58334491 -.00000374  00000-0 -53753-5 0  9998,2 50803  53.2162 253.6253 0002112  34.7158 115.1819 15.08838065  1301
2022-05-27 22:00:01,50803,15.08871074,0.0002087,53.2162,252.1283,32.5416,129.0085,-0.00033497,-0.0020945,1 50803U 22001A   22147.91668981 -.00033497  00000-0 -20945-2 0  9995,2 50803  53.2162 252.1283 0002087  32.5416 129.0085 15.08871074  1308
2022-05-28 14:00:01,50803,15.0885196,0.0002143,53.2166,249.1362,31.3123,153.4005,-0.00005302,-0.00031513,1 50803U 22001A   22148.58334491 -.00005302  00000-0 -31513-3 0  9993,2 50803  53.2166 249.1362 0002143  31.3123 153.4005 15.08851960  1306
2022-05-28 14:00:01,50803,15.0885196,0.0002143,53.2166,249.1362,31.3123,153.4005,-0.00005302,-0.00031513,1 50803U 22001A   22148.58334491 -.00005302  00000-0 -31513-3 0  9993,2 50803  53.2166 249.1362 0002143  31.3123 153.4005 15.08851960 23175
2022-05-28 22:00:00,50803,15.0887098,0.0002092,53.2166,247.6391,29.1482,167.1827,-0.00034519,-0.0021593,1 50803U 22001A   22148.91667824 -.00034519  00000-0 -21593-2 0  9997,2 50803  53.2166 247.6391 0002092  29.1482 167.1827 15.08870980  1304
2022-05-29 14:00:01,50803,15.08838418,0.0002195,53.217,244.6472,31.1047,188.4258,-0.00053043,-0.0033394,1 50803U 22001A   22149.58334491 -.00053043  00000-0 -33394-2 0  9997,2 50803  53.2170 244.6472 0002195  31.1047 188.4258 15.08838418  1304
2022-05-29 22:00:00,50803,15.08815227,0.0002145,53.2169,243.1501,31.3949,199.708,-0.00035817,-0.002245,1 50803U 22001A   22149.91667824 -.00035817  00000-0 -22450-2 0  9993,2 50803  53.2169 243.1501 0002145  31.3949 199.7080 15.08815227 23379
2022-05-29 22:00:00,50803,15.08815227,0.0002145,53.2169,243.1501,31.3949,199.708,-0.00035817,-0.002245,1 50803U 22001A   22149.91667824 -.00035817  00000-0 -22450-2 0  9993,2 50803  53.2169 243.1501 0002145  31.3949 199.7080 15.08815227  1308
2022-05-30 14:00:01,50803,15.0880041,0.0002264,53.2171,240.1586,32.8218,221.3849,0.00016348,0.001044,1 50803U 22001A   22150.58334491  .00016348  00000-0  10440-2 0  9991,2 50803  53.2171 240.1586 0002264  32.8218 221.3849 15.08800410 23484
2022-05-30 14:00:01,50803,15.0880041,0.0002264,53.2171,240.1586,32.8218,221.3849,0.00016348,0.001044,1 50803U 22001A   22150.58334491  .00016348  00000-0  10440-2 0  9991,2 50803  53.2171 240.1586 0002264  32.8218 221.3849 15.08800410  1301
2022-05-30 22:00:00,50803,15.08832412,0.000215,53.2168,238.6614,32.8363,232.9223,-0.00028166,-0.0017588,1 50803U 22001A   22150.91667824 -.00028166  00000-0 -17588-2 0  9990,2 50803  53.2168 238.6614 0002150  32.8363 232.9223 15.08832412  1307
2022-05-31 06:00:02,50803,15.08820849,0.0002021,53.217,237.1645,37.2076,240.1805,0.00019682,0.0012519,1 50803U 22001A   22151.25002315  .00019682  00000-0  12519-2 0  9996,2 50803  53.2170 237.1645 0002021  37.2076 240.1805 15.08820849  1303
2022-05-31 22:00:00,50803,15.08849395,0.0002131,53.2164,234.1726,33.8665,266.6195,-0.00027081,-0.0016893,1 50803U 22001A   22151.91667824 -.00027081  00000-0 -16893-2 0  9994,2 50803  53.2164 234.1726 0002131  33.8665 266.6195 15.08849395 23688
2022-05-31 22:00:00,50803,15.08849395,0.0002131,53.2164,234.1726,33.8665,266.6195,-0.00027081,-0.0016893,1 50803U 22001A   22151.91667824 -.00027081  00000-0 -16893-2 0  9994,2 50803  53.2164 234.1726 0002131  33.8665 266.6195 15.08849395  1303
2022-06-01 14:00:01,50803,15.08834816,0.0002267,53.2161,231.1813,34.5989,289.0865,0.00024149,0.0015304,1 50803U 22001A   22152.58334491  .00024149  00000-0  15304-2 0  9995,2 50803  53.2161 231.1813 0002267  34.5989 289.0865 15.08834816 23782
2022-06-01 20:00:01,50803,15.08866512,0.0002193,53.2155,230.0583,34.1427,208.2351,-0.00026673,-0.0016627,1 50803U 22001A   22152.83334491 -.00026673  00000-0 -16627-2 0  9998,2 50803  53.2155 230.0583 0002193  34.1427 208.2351 15.08866512  1303
2022-06-01 20:00:01,50803,15.08866512,0.0002193,53.2155,230.0583,34.1427,208.2351,-0.00026673,-0.0016627,1 50803U 22001A   22152.83334491 -.00026673  00000-0 -16627-2 0  9998,2 50803  53.2155 230.0583 0002193  34.1427 208.2351 15.08866512 23813
2022-06-03 04:18:55,50803,15.08841106,0.0002249,53.2163,224.0115,37.8609,322.2541,-0.00000485,-0.000012358,1 50803U 22001A   22154.17980620 -.00000485  00000-0 -12358-4 0  9990,2 50803  53.2163 224.0115 0002249  37.8609 322.2541 15.08841106 24024
2022-06-03 10:40:27,50803,15.08841974,0.0002213,53.2163,222.8222,37.0492,323.0652,-0.00000344,-0.0000035257,1 50803U 22001A   22154.44476455 -.00000344  00000-0 -35257-5 0  9994,2 50803  53.2163 222.8222 0002213  37.0492 323.0652 15.08841974 22799
2022-06-03 13:51:13,50803,15.08842243,0.0002244,53.2173,222.2284,36.6223,323.4922,-0.00000227,0.0000038559,1 50803U 22001A   22154.57724402 -.00000227  00000-0  38559-5 0  9993,2 50803  53.2173 222.2284 0002244  36.6223 323.4922 15.08842243 22810
2022-06-04 10:31:13,50803,15.08850971,0.0002237,53.2168,218.3625,36.6995,323.415,-0.00000236,0.0000032742,1 50803U 22001A   22155.43835394 -.00000236  00000-0  32742-5 0  9990,2 50803  53.2168 218.3625 0002237  36.6995 323.4150 15.08850971 24213
2022-06-04 10:31:13,50803,15.08850971,0.0002237,53.2168,218.3625,36.6995,323.415,-0.00000236,0.0000032742,1 50803U 22001A   22155.43835394 -.00000236  00000-0  32742-5 0  9990,2 50803  53.2168 218.3625 0002237  36.6995 323.4150 15.08850971 22941
2022-06-05 22:00:00,50803,15.08834787,0.0002252,53.2156,211.7264,34.4339,80.0587,0.00005527,0.00036511,1 50803U 22001A   22156.91667824  .00005527  00000-0  36511-3 0  9998,2 50803  53.2156 211.7264 0002252  34.4339  80.0587 15.08834787 24432
2022-06-05 22:00:00,50803,15.08834787,0.0002252,53.2156,211.7264,34.4339,80.0587,0.00005527,0.00036511,1 50803U 22001A   22156.91667824  .00005527  00000-0  36511-3 0  9998,2 50803  53.2156 211.7264 0002252  34.4339  80.0587 15.08834787  1303
2022-06-06 14:00:01,50803,15.08823466,0.0002476,53.2158,208.7352,32.6055,105.0847,0.00042937,0.0027007,1 50803U 22001A   22157.58334491  .00042937  00000-0  27007-2 0  9998,2 50803  53.2158 208.7352 0002476  32.6055 105.0847 15.08823466  1301
2022-06-06 22:00:00,50803,15.08838283,0.0002241,53.216,207.2371,33.9879,115.3064,-0.00020249,-0.0012577,1 50803U 22001A   22157.91667824 -.00020249  00000-0 -12577-2 0  9994,2 50803  53.2160 207.2371 0002241  33.9879 115.3064 15.08838283 24580
2022-06-06 22:00:00,50803,15.08838283,0.0002241,53.216,207.2371,33.9879,115.3064,-0.00020249,-0.0012577,1 50803U 22001A   22157.91667824 -.00020249  00000-0 -12577-2 0  9994,2 50803  53.2160 207.2371 0002241  33.9879 115.3064 15.08838283  1305
2022-06-07 10:03:34,50803,15.08835917,0.0002298,53.2166,204.9811,35.0358,325.0784,-0.00000879,-0.000037121,1 50803U 22001A   22158.41915389 -.00000879  00000-0 -37121-4 0  9993,2 50803  53.2166 204.9811 0002298  35.0358 325.0784 15.08835917 24665
2022-06-07 10:03:34,50803,15.08835917,0.0002298,53.2166,204.9811,35.0358,325.0784,-0.00000879,-0.000037121,1 50803U 22001A   22158.41915389 -.00000879  00000-0 -37121-4 0  9993,2 50803  53.2166 204.9811 0002298  35.0358 325.0784 15.08835917 23394
2022-06-07 14:49:44,50803,15.0883038,0.0002312,53.2168,204.0894,33.9312,326.1828,-0.00000814,-0.00003307,1 50803U 22001A   22158.61787797 -.00000814  00000-0 -33070-4 0  9993,2 50803  53.2168 204.0894 0002312  33.9312 326.1828 15.08830380 23426
2022-06-08 11:29:45,50803,15.08836706,0.0002366,53.2169,200.2236,34.3578,325.7567,-0.00000635,-0.000021789,1 50803U 22001A   22159.47899697 -.00000635  00000-0 -21789-4 0  9996,2 50803  53.2169 200.2236 0002366  34.3578 325.7567 15.08836706 24821
2022-06-08 13:05:08,50803,15.08836953,0.0002372,53.2169,199.9262,34.651,325.4637,-0.00000586,-0.000018722,1 50803U 22001A   22159.54523684 -.00000586  00000-0 -18722-4 0  9992,2 50803  53.2169 199.9262 0002372  34.6510 325.4637 15.08836953 23569
2022-06-08 19:26:40,50803,15.08838038,0.0002389,53.217,198.7368,34.7765,325.3383,-0.00000406,-0.0000073595,1 50803U 22001A   22159.81019616 -.00000406  00000-0 -73595-5 0  9998,2 50803  53.2170 198.7368 0002389  34.7765 325.3383 15.08838038 23604
